ONEWEB-0564             
1 55801U 23029F   24306.48926984  .00000083  00000+0  17250-3 0  9998
2 55801  87.9293  32.3758 0001645 115.1450 244.9854 13.20769285 83628
ONEWEB-0638             
1 55802U 23029G   24305.82658350  .00000127  00000+0  30678-3 0  9993
2 55802  87.9031  47.7496 0002168 113.2934 246.8424 13.14500269 82154
ONEWEB-0639             
1 55803U 23029H   24306.37207107  .00002959  00000+0  73578-2 0  9995
2 55803  87.9172  62.8639 0002718  76.6986 283.4450 13.19713101 81407
ONEWEB-0640             
1 55804U 23029J   24305.83611134 -.00000037  00000+0 -13383-3 0  9991
2 55804  87.9028  47.7409 0002524 106.7258 253.4149 13.14501842 81467
ONEWEB-0641             
1 55805U 23029K   24306.36728906 -.00000446  00000+0 -11455-2 0  9998
2 55805  87.9171  62.8435 0001772  90.9960 269.1376 13.19725562 81415
ONEWEB-0642             
1 55806U 23029L   24305.83184793  .00000146  00000+0  33193-3 0  9999
2 55806  87.9177  62.9784 0002281  74.5820 285.5565 13.19724523 81338
ONEWEB-0643             
1 55807U 23029M   24305.80598039  .00000187  00000+0  46952-3 0  9991
2 55807  87.9028  47.7259 0001820  68.7207 291.4117 13.14502193 81436
ONEWEB-0644             
1 55808U 23029N   24306.35783311  .00000161  00000+0  36990-3 0  9995
2 55808  87.9178  62.8723 0001961  82.7366 277.3990 13.19728234 81405
